NORAD_CAT_ID,OBJECT_NAME,OBJECT_TYPE,EPOCH,MEAN_MOTION,ECCENTRICITY,INCLINATION,RA_OF_ASC_NODE,ARG_OF_PERICENTER,MEAN_ANOMALY,BSTAR,MEAN_MOTION_DOT,MEAN_MOTION_DDOT,TLE_LINE0,TLE_LINE1,TLE_LINE2,SEMIMAJOR_AXIS,PERIOD,APOGEE,PERIGEE,DECAYED
53918.0,STARLINK-5012,PAYLOAD,2022-11-15 22:00:00,15.73205027,0.0003964,53.2167,355.8858,4.2855,118.1994,-0.00017009,-0.00024442,0.0,0 STARLINK-5012,1 53918U 22119AJ  22319.91667824 -.00024442  00000-0 -17009-3 0  9999,2 53918  53.2167 355.8858 0003964   4.2855 118.1994 15.73205027  8610,6727.880999999999,91.533,352.413,347.079,0.0
53918.0,STARLINK-5012,PAYLOAD,2022-11-16 14:00:01,15.73148609,0.0004203,53.2165,352.5751,3.0019,297.3924,0.00085462,0.00120834,0.0,0 STARLINK-5012,1 53918U 22119AJ  22320.58335648  .00120834  00000-0  85462-3 0  9998,2 53918  53.2165 352.5751 0004203   3.0019 297.3924 15.73148609  1304,6728.042,91.536,352.7340000000001,347.079,0.0
53918.0,STARLINK-5012,PAYLOAD,2022-11-16 20:00:01,15.73250547,0.0003918,53.2173,351.3291,3.264,273.7421,-0.00048801,-0.00068738,0.0,0 STARLINK-5012,1 53918U 22119AJ  22320.83334491 -.00068738  00000-0 -48801-3 0  9993,2 53918  53.2173 351.3291 0003918   3.2640 273.7421 15.73250547  8754,6727.751,91.53,352.25199999999984,346.98,0.0
53918.0,STARLINK-5012,PAYLOAD,2022-11-16 22:00:08,15.7322174,0.0003833,53.2172,350.9133,2.9068,26.811,-0.00019502,-0.00027941,0.0,0 STARLINK-5012,1 53918U 22119AJ  22320.91675926 -.00027941  00000-0 -19502-3 0  9990,2 53918  53.2172 350.9133 0003833   2.9068  26.8110 15.73221740  1308,6727.833000000001,91.532,352.277,347.119,0.0
53918.0,STARLINK-5012,PAYLOAD,2022-11-17 04:00:00,15.73273777,0.000405,53.2167,349.7006,4.6065,1.2959,-0.0005167999999999,-0.00072796,0.0,0 STARLINK-5012,1 53918U 22119AJ  22321.16667824 -.00072796  00000-0 -51680-3 0  9997,2 53918  53.2167 349.7006 0004050   4.6065   1.2959 15.73273777  8802,6727.685,91.529,352.275,346.825,0.0
53918.0,STARLINK-5012,PAYLOAD,2022-11-17 14:00:01,15.73133273,0.000432,53.2167,347.6175,5.3838,201.7887,0.00076623,0.00108038,0.0,0 STARLINK-5012,1 53918U 22119AJ  22321.58334491  .00108038  00000-0  76623-3 0  9995,2 53918  53.2167 347.6175 0004320   5.3838 201.7887 15.73133273  1303,6728.085,91.537,352.857,347.0440000000001,0.0
53918.0,STARLINK-5012,PAYLOAD,2022-11-17 20:00:01,15.73204198,0.0004187,53.2177,346.3727,5.6315,178.208,2.619e-06,-2.57e-06,0.0,0 STARLINK-5012,1 53918U 22119AJ  22321.83334491 -.00000257  00000-0  26190-5 0  9994,2 53918  53.2177 346.3727 0004187   5.6315 178.2080 15.73204198  8919,6727.8830000000025,91.533,352.565,346.931,0.0
53918.0,STARLINK-5012,PAYLOAD,2022-11-17 22:00:00,15.73203562,0.0004112,53.2164,345.9888,4.2266,291.9054,0.00042401,0.00059338,0.0,0 STARLINK-5012,1 53918U 22119AJ  22321.91667824  .00059338  00000-0  42401-3 0  9996,2 53918  53.2164 345.9888 0004112   4.2266 291.9054 15.73203562  1300,6727.885,91.533,352.517,346.9840000000001,0.0
53918.0,STARLINK-5012,PAYLOAD,2022-11-18 06:00:00,15.73230162,0.0004215,53.2162,344.3405,7.3774,17.7174,-9.0228e-05,-0.00013291,0.0,0 STARLINK-5012,1 53918U 22119AJ  22322.25001157 -.00013291  00000-0 -90228-4 0  9996,2 53918  53.2162 344.3405 0004215   7.3774  17.7174 15.73230162  8971,6727.809,91.531,352.51,346.838,0.0
53918.0,STARLINK-5012,PAYLOAD,2022-11-18 14:00:01,15.73231391,0.0004399,53.2156,342.6919,7.0629,106.971,-0.00034189,-0.00048425,0.0,0 STARLINK-5012,1 53918U 22119AJ  22322.58334491 -.00048425  00000-0 -34189-3 0  9992,2 53918  53.2156 342.6919 0004399   7.0629 106.9710 15.73231391  1306,6727.806,91.531,352.63,346.711,0.0
53918.0,STARLINK-5012,PAYLOAD,2022-11-18 22:00:00,15.73188136,0.0004093999999999,53.2156,341.0402,6.1386,196.8499,0.00033495,0.00046641,0.0,0 STARLINK-5012,1 53918U 22119AJ  22322.91667824  .00046641  00000-0  33495-3 0  9993,2 53918  53.2156 341.0402 0004094   6.1386 196.8499 15.73188136  1308,6727.929,91.534,352.548,347.04,0.0
53918.0,STARLINK-5012,PAYLOAD,2022-11-19 14:00:01,15.73237579,0.0004375,53.2156,337.7432,3.9427,16.9165,-0.00046775,-0.00065905,0.0,0 STARLINK-5012,1 53918U 22119AJ  22323.58334491 -.00065905  00000-0 -46775-3 0  9999,2 53918  53.2156 337.7432 0004375   3.9427  16.9165 15.73237579  9188,6727.788000000001,91.531,352.596,346.71,0.0
53918.0,STARLINK-5012,PAYLOAD,2022-11-19 22:00:00,15.73172824,0.0004066,53.2156,336.0917,3.5052,106.3042,0.00036325,0.00050625,0.0,0 STARLINK-5012,1 53918U 22119AJ  22323.91667824  .00050625  00000-0  36325-3 0  9996,2 53918  53.2156 336.0917 0004066   3.5052 106.3042 15.73172824  1300,6727.973000000001,91.535,352.5730000000001,347.102,0.0
53918.0,STARLINK-5012,PAYLOAD,2022-11-20 06:00:00,15.73188952,0.0004245,53.2153,334.4438,3.3331,195.4061,-3.5267e-05,-5.572e-05,0.0,0 STARLINK-5012,1 53918U 22119AJ  22324.25001157 -.00005572  00000-0 -35267-4 0  9993,2 53918  53.2153 334.4438 0004245   3.3331 195.4061 15.73188952  9299,6727.927,91.534,352.648,346.936,0.0
53918.0,STARLINK-5012,PAYLOAD,2022-11-20 14:00:01,15.73223765,0.0004281,53.2146,332.7945,1.6796,285.9591,-0.00039442,-0.00055702,0.0,0 STARLINK-5012,1 53918U 22119AJ  22324.58334491 -.00055702  00000-0 -39442-3 0  9997,2 53918  53.2146 332.7945 0004281   1.6796 285.9591 15.73223765  1300,6727.8269999999975,91.532,352.5730000000001,346.81199999999984,0.0
53918.0,STARLINK-5012,PAYLOAD,2022-11-20 22:00:00,15.73139513,0.0003971,53.2147,331.14300000000014,1.0214,15.5643,0.00064848,0.00091174,0.0,0 STARLINK-5012,1 53918U 22119AJ  22324.91667824  .00091174  00000-0  64848-3 0  9992,2 53918  53.2147 331.1430 0003971   1.0214  15.5643 15.73139513  1309,6728.068,91.537,352.60400000000016,347.261,0.0
53918.0,STARLINK-5012,PAYLOAD,2022-11-21 14:00:01,15.73182314,0.0004276,53.2147,327.8458,0.2434,194.1418,0.00025178,0.00034847,0.0,0 STARLINK-5012,1 53918U 22119AJ  22325.58334491  .00034847  00000-0  25178-3 0  9994,2 53918  53.2147 327.8458 0004276   0.2434 194.1418 15.73182314  9506,6727.946,91.534,352.68699999999984,346.934,0.0
53918.0,STARLINK-5012,PAYLOAD,2022-11-21 22:00:00,15.73198313,0.0004059,53.2147,326.1943,0.8506,282.46,0.00048946,0.00068654,0.0,0 STARLINK-5012,1 53918U 22119AJ  22325.91667824  .00068654  00000-0  48946-3 0  9991,2 53918  53.2147 326.1943 0004059   0.8506 282.4600 15.73198313  1302,6727.9,91.533,352.496,347.034,0.0
53918.0,STARLINK-5012,PAYLOAD,2022-11-22 14:00:01,15.73222794,0.0004243,53.2138,322.8965,359.0864,102.204,-0.00039781,-0.0005617,0.0,0 STARLINK-5012,1 53918U 22119AJ  22326.58335648 -.00056170  00000-0 -39781-3 0  9990,2 53918  53.2138 322.8965 0004243 359.0864 102.2040 15.73222794  9665,6727.83,91.532,352.55,346.841,0.0
53918.0,STARLINK-5012,PAYLOAD,2022-11-22 22:00:00,15.73196518,0.0003928,53.214,321.2451,0.885,189.2699,-6.3388e-05,-9.513e-05,0.0,0 STARLINK-5012,1 53918U 22119AJ  22326.91667824 -.00009513  00000-0 -63388-4 0  9991,2 53918  53.2140 321.2451 0003928   0.8850 189.2699 15.73196518  1308,6727.905,91.533,352.413,347.12699999999984,0.0
53918.0,STARLINK-5012,PAYLOAD,2022-11-23 06:00:00,15.73168426,0.0004175,53.2141,319.5974,4.2781,274.8063,0.00022987,0.00031729,0.0,0 STARLINK-5012,1 53918U 22119AJ  22327.25001157  .00031729  00000-0  22987-3 0  9991,2 53918  53.2141 319.5974 0004175   4.2781 274.8063 15.73168426  9766,6727.985,91.535,352.659,347.041,0.0
53918.0,STARLINK-5012,PAYLOAD,2022-11-23 14:00:01,15.73227939,0.0004178,53.2142,317.9476,2.9711,5.0075,-0.00060621,-0.00084998,0.0,0 STARLINK-5012,1 53918U 22119AJ  22327.58334491 -.00084998  00000-0 -60621-3 0  9992,2 53918  53.2142 317.9476 0004178   2.9711   5.0075 15.73227939  1301,6727.816,91.532,352.491,346.87,0.0
53918.0,STARLINK-5012,PAYLOAD,2022-11-23 22:00:00,15.7315616,0.0003912,53.2143,316.2962,4.3247,92.586,0.0005852,0.00082186,0.0,0 STARLINK-5012,1 53918U 22119AJ  22327.91667824  .00082186  00000-0  58520-3 0  9998,2 53918  53.2143 316.2962 0003912   4.3247  92.5860 15.73156160  9879,6728.02,91.536,352.517,347.25300000000016,0.0
53918.0,STARLINK-5012,PAYLOAD,2022-11-24 14:00:01,15.732937699999995,0.0004072,53.2135,312.9982,4.4025,270.3528,-0.00085425,-0.00119374,0.0,0 STARLINK-5012,1 53918U 22119AJ  22328.58334491 -.00119374  00000-0 -85425-3 0  9999,2 53918  53.2135 312.9982 0004072   4.4025 270.3528 15.73293770  9975,6727.628000000002,91.528,352.232,346.75300000000016,0.0
53918.0,STARLINK-5012,PAYLOAD,2022-11-24 22:00:00,15.73339223,0.000383,53.2152,311.3333,357.4163,6.3138,-0.0028868,-0.00390156,0.0,0 STARLINK-5012,1 53918U 22119AJ  22328.91667824 -.00390156  00000-0 -28868-2 0  9991,2 53918  53.2152 311.3333 0003830 357.4163   6.3138 15.73339223  1309,6727.498000000001,91.525,351.94,346.787,0.0
53918.0,STARLINK-5012,PAYLOAD,2022-11-25 06:00:00,15.73097412,0.0003393,53.2167,309.6764,333.7259,118.9546,-0.0053015,-0.00684504,0.0,0 STARLINK-5012,1 53918U 22119AJ  22329.25001157 -.00684504  00000-0 -53015-2 0  9995,2 53918  53.2167 309.6764 0003393 333.7259 118.9546 15.73097412 10089,6728.188,91.539,352.336,347.77,0.0
53918.0,STARLINK-5012,PAYLOAD,2022-11-25 14:00:01,15.72599062,0.0003332,53.2166,308.0251,314.368,226.8455,-0.0090742,-0.01111171,0.0,0 STARLINK-5012,1 53918U 22119AJ  22329.58334491 -.01111171  00000-0 -90742-2 0  9995,2 53918  53.2166 308.0251 0003332 314.3680 226.8455 15.72599062 10139,6729.609,91.568,353.716,349.232,0.0
53918.0,STARLINK-5012,PAYLOAD,2022-11-25 22:00:00,15.7180674,0.0005352,53.2176,306.3726,280.096,348.8301,-0.0096898,-0.01144326,0.0,0 STARLINK-5012,1 53918U 22119AJ  22329.91667824 -.01144326  00000-0 -96898-2 0  9997,2 53918  53.2176 306.3726 0005352 280.0960 348.8301 15.71806740  1309,6731.87,91.614,357.338,350.13199999999995,0.0
53918.0,STARLINK-5012,PAYLOAD,2022-11-26 06:00:00,15.70959944,0.0006848,53.2171,304.7343,272.5439,83.1318,-0.0095574,-0.01095488,0.0,0 STARLINK-5012,1 53918U 22119AJ  22330.25001157 -.01095488  00000-0 -95574-2 0  9991,2 53918  53.2171 304.7343 0006848 272.5439  83.1318 15.70959944 10232,6734.2890000000025,91.664,360.766,351.543,0.0
